     2.100          NAVIGATION                              RINEX VERSION / TYPE
fic2rin                                 11/12/2011 00:09:19 PGM / RUN BY / DATE
                                                            END OF HEADER
 1 11 11 11 10  0  0.0  .870968215168D-04  .220552465180D-10  .000000000000D+00
     .200000000000D+02 -.215937500000D+02  .453268880468D-08 -.279850706926D+01
    -.103376805782D-05  .487852841616D-03  .823475420475D-05  .515366016769D+04
     .468000000000D+06 -.242143869400D-07  .239676590450D+01  .372529029846D-08
     .960161244947D+00  .221906250000D+03  .135430179103D+01 -.788890003292D-08
    -.640026659679D-09  .100000000000D+01  .166100000000D+04  .000000000000D+00
     .240000000000D+01  .000000000000D+00  .791624188423D-08  .200000000000D+02
     .460806000000D+06  .400000000000D+01
 2 11 11 11 10  0  0.0  .365098472685D-03  .181898940355D-11  .000000000000D+00
     .470000000000D+02 -.258437500000D+02  .519950229443D-08 -.678877284410D+00
    -.143051147461D-05  .106160802534D-01  .772438943386D-05  .515359120560D+04
     .468000000000D+06  .299885869026D-06  .238733386599D+01 -.465661287308D-07
     .938738698303D+00  .221593750000D+03 -.291552901414D+01 -.832213236450D-08
    -.665027701073D-09  .100000000000D+01  .166100000000D+04  .000000000000D+00
     .240000000000D+01  .000000000000D+00 -.176951289177D-07  .470000000000D+02
     .460806000000D+06  .400000000000D+01
 3 11 11 11 10  0  0.0  .793537590653D-03  .511590769747D-11  .000000000000D+00
     .280000000000D+02  .271562500000D+02  .578631245171D-08 -.525329221408D+00
     .158511102200D-05  .149130540667D-01  .563636422157D-05  .515367610168D+04
     .468000000000D+06 -.108033418655D-06  .122616588342D+01  .176951289177D-06
     .929436913635D+00  .254062500000D+03  .115474984058D+01 -.883965392135D-08
     .311441544219D-09  .100000000000D+01  .166100000000D+04  .000000000000D+00
     .340000000000D+01  .000000000000D+00 -.465661287308D-08  .280000000000D+02
     .460806000000D+06  .400000000000D+01
 4 11 11 11 10  0  0.0  .658445060253D-06  .112549969344D-10  .000000000000D+00
     .188000000000D+03 -.291250000000D+02  .509449792057D-08  .249071567681D+01
    -.171922147274D-05  .997066730633D-02  .814534723759D-05  .515373487091D+04
     .468000000000D+06 -.186264514923D-08  .240448157583D+01 -.178813934326D-06
     .937830422207D+00  .211312500000D+03  .796263147716D+00 -.810498046211D-08
    -.662527596934D-09  .100000000000D+01  .166100000000D+04  .000000000000D+00
     .240000000000D+01  .000000000000D+00 -.651925802231D-08  .188000000000D+03
     .460806000000D+06  .400000000000D+01
 5 11 11 11 10  0  0.0 -.243740156293D-03 -.500222085975D-11  .000000000000D+00
     .700000000000D+02  .105000000000D+03  .422196157593D-08  .128420914193D+01
     .560842454433D-05  .260390900075D-02  .106636434793D-04  .515380354309D+04
     .468000000000D+06 -.689178705215D-07 -.283379683289D+01  .372529029846D-07
     .953139261573D+00  .168406250000D+03  .196996598293D+00 -.784104089654D-08
    -.357157734196D-10  .100000000000D+01  .166100000000D+04  .000000000000D+00
     .240000000000D+01  .000000000000D+00 -.102445483208D-07  .700000000000D+02
     .460806000000D+06  .400000000000D+01
 6 11 11 11 10  0  0.0  .783242285252D-06  .579802872380D-11  .000000000000D+00
     .780000000000D+02  .224062500000D+02  .552701593668D-08  .143730512082D+01
     .116042792797D-05  .670761556830D-02  .479631125927D-05  .515369501877D+04
     .468000000000D+06  .119209289551D-06  .130121716211D+01  .242143869400D-07
     .936408146918D+00  .267843750000D+03 -.650951768468D+00 -.843892294359D-08
     .168221292806D-09  .100000000000D+01  .166100000000D+04  .000000000000D+00
     .340000000000D+01  .000000000000D+00 -.512227416039D-08  .780000000000D+02
     .460806000000D+06  .400000000000D+01
 7 11 11 11 10  0  0.0  .367406755686D-04  .216004991671D-11  .000000000000D+00
     .440000000000D+02 -.133562500000D+03  .425660587615D-08 -.220950481390D+01
    -.699050724506D-05  .508722383529D-02  .551901757717D-05  .515363369751D+04
     .468000000000D+06 -.149011611938D-07 -.725242259537D+00 -.800937414169D-07
     .975351887847D+00  .284500000000D+03 -.302729249413D+01 -.803104881113D-08
    -.211794536378D-09  .100000000000D+01  .166100000000D+04  .000000000000D+00
     .240000000000D+01  .000000000000D+00 -.111758708954D-07  .440000000000D+02
     .460806000000D+06  .400000000000D+01
 8 11 11 11 10  0  0.0  .456348061562D-07  .000000000000D+00  .000000000000D+00
     .380000000000D+02 -.141250000000D+03  .371086885830D-08 -.272826947277D+01
    -.719539821148D-05  .121502410620D-01  .667013227940D-05  .515373999023D+04
     .468000000000D+06 -.162050127983D-06 -.646167716210D+00 -.763684511185D-07
     .997326896726D+00  .274125000000D+03 -.300370332192D+01 -.760603110744D-08
    -.229295265354D-09  .100000000000D+01  .166100000000D+04  .000000000000D+00
     .340000000000D+01  .000000000000D+00 -.419095158577D-08  .380000000000D+02
     .460806000000D+06  .400000000000D+01
 9 11 11 11 10  0  0.0  .117630232126D-03  .250111042988D-11  .000000000000D+00
     .890000000000D+02 -.121437500000D+03  .401016703955D-08 -.287016127515D+01
    -.630505383015D-05  .171598481247D-01  .452622771263D-05  .515365311813D+04
     .468000000000D+06  .255182385445D-06 -.752437368277D+00  .670552253723D-07
     .984164531226D+00  .300718750000D+03  .160097555728D+01 -.765960476757D-08
    -.163935399996D-09  .100000000000D+01  .166100000000D+04  .000000000000D+00
     .340000000000D+01  .000000000000D+00 -.558793544769D-08  .890000000000D+02
     .460806000000D+06  .400000000000D+01
11 11 11 11 10  0  0.0 -.202967319638D-03 -.352429196937D-11  .000000000000D+00
     .610000000000D+02 -.351250000000D+02  .636133640377D-08 -.202077315708D+01
    -.179000198841D-05  .125888109906D-01  .539235770702D-05  .515366452789D+04
     .468000000000D+06  .165775418282D-06  .214138101407D+01 -.689178705215D-07
     .887685363316D+00  .233781250000D+03  .998447456864D+00 -.870786271743D-08
    -.426803492364D-09  .100000000000D+01  .166100000000D+04  .000000000000D+00
     .240000000000D+01  .000000000000D+00 -.116415321827D-07  .610000000000D+02
     .460806000000D+06  .400000000000D+01
13 11 11 11 10  0  0.0  .242033042014D-03 -.193267624127D-11  .000000000000D+00
     .240000000000D+02  .470312500000D+02  .416731644260D-08  .235313647061D+00
     .229850411415D-05  .457672961056D-02  .935047864914D-06  .515375571442D+04
     .468000000000D+06 -.353902578354D-07 -.169834912550D+01 -.633299350739D-07
     .987680828917D+00  .373281250000D+03  .195564953892D+01 -.829177395710D-08
     .216794744657D-09  .100000000000D+01  .166100000000D+04  .000000000000D+00
     .240000000000D+01  .000000000000D+00 -.116415321827D-07  .240000000000D+02
     .460806000000D+06  .400000000000D+01
14 11 11 11 10  0  0.0  .180733390152D-03  .159161572810D-11  .000000000000D+00
     .110000000000D+02  .483125000000D+02  .430803658987D-08  .275504197959D+00
     .237859785557D-05  .632655259687D-02  .152923166752D-05  .515373626900D+04
     .468000000000D+06 -.782310962677D-07 -.172370318695D+01  .800937414169D-07
     .980634432366D+00  .361531250000D+03 -.206665396923D+01 -.829855995405D-08
     .185722021782D-09  .100000000000D+01  .166100000000D+04  .000000000000D+00
     .240000000000D+01  .000000000000D+00 -.884756445885D-08  .110000000000D+02
     .460806000000D+06  .400000000000D+01
15 11 11 11 10  0  0.0 -.996859744191D-04  .113686837722D-11  .000000000000D+00
     .130000000000D+02  .638750000000D+02  .502342353147D-08 -.151821652896D-01
     .335648655891D-05  .390759087168D-02  .145472586155D-05  .515371303749D+04
     .468000000000D+06  .409781932831D-07 -.180506594189D+01  .000000000000D+00
     .947691060599D+00  .341750000000D+03 -.680939387402D-01 -.862250201896D-08
     .242867259253D-09  .100000000000D+01  .166100000000D+04  .000000000000D+00
     .240000000000D+01  .000000000000D+00 -.102445483208D-07  .130000000000D+02
     .460806000000D+06  .400000000000D+01
16 11 11 11 10  0  0.0 -.208278652281D-03 -.204636307899D-11  .000000000000D+00
     .410000000000D+02 -.359375000000D+02  .398588031363D-08  .155413585353D+01
    -.164099037647D-05  .616456789430D-02  .114627182484D-04  .515355840874D+04
     .468000000000D+06  .335276126862D-07  .347719065746D+00  .689178705215D-07
     .978533231425D+00  .166062500000D+03 -.726211157495D-01 -.760138805690D-08
     .311084386485D-09  .100000000000D+01  .166100000000D+04  .000000000000D+00
     .240000000000D+01  .000000000000D+00 -.977888703346D-08  .410000000000D+02
     .460806000000D+06  .400000000000D+01
19 11 11 11 10  0  0.0 -.203726347536D-03 -.397903932026D-11  .000000000000D+00
     .320000000000D+02  .107500000000D+02  .506271088223D-08 -.115483017966D+00
     .445172190666D-06  .767493678723D-02  .491179525852D-05  .515370564842D+04
     .468000000000D+06  .100582838058D-06  .144292306564D+01  .391155481339D-07
     .958883938988D+00  .282500000000D+03  .128751395287D+00 -.831891794490D-08
     .785747015231D-10  .100000000000D+01  .166100000000D+04  .000000000000D+00
     .240000000000D+01  .000000000000D+00 -.144354999065D-07  .320000000000D+02
     .460806000000D+06  .400000000000D+01
20 11 11 11 10  0  0.0  .559156760573D-04  .682121026330D-12  .000000000000D+00
     .800000000000D+02  .109125000000D+03  .461947813409D-08  .256513624177D+01
     .561587512493D-05  .473997090012D-02  .105537474155D-04  .515357053566D+04
     .468000000000D+06  .782310962677D-07 -.287306094995D+01 -.931322574615D-08
     .932220083097D+00  .158968750000D+03  .125983320945D+01 -.797140346952D-08
    -.214294640518D-10  .100000000000D+01  .166100000000D+04  .000000000000D+00
     .340000000000D+01  .000000000000D+00 -.791624188423D-08  .800000000000D+02
     .460806000000D+06  .400000000000D+01
